start=new Date('2021-10-05T00:00:00.000Z').valueOf();
sats=[{"MEAN_ELEMENT_THEORY":"SGP4","REV_AT_EPOCH":"5342","NORAD_CAT_ID":"46703","PERIOD":"95.592","TLE_LINE2":"2 46703  53.0541 300.1355 0001350  84.9002 275.2141 15.06400109 53421","GP_ID":"186225204","MEAN_MOTION_DOT":"0.00000072","RA_OF_ASC_NODE":"300.1355","REF_FRAME":"TEME","MEAN_MOTION":"15.06400109","ARG_OF_PERICENTER":"84.9002","CLASSIFICATION_TYPE":"U","MEAN_MOTION_DDOT":"0.0000000000000","OBJECT_TYPE":"PAYLOAD","RCS_SIZE":"LARGE","SEMIMAJOR_AXIS":"6925.348","APOAPSIS":"548.148","TIME_SYSTEM":"UTC","LAUNCH_DATE":"2020-10-18","ECCENTRICITY":"0.00013500","PERIAPSIS":"546.278","CENTER_NAME":"EARTH","ELEMENT_SET_NO":"999","OBJECT_ID":"2020-073AK","INCLINATION":"53.0541","SITE":"AFETR","EPHEMERIS_TYPE":"0","TLE_LINE1":"1 46703U 20073AK  21277.79810419  .00000072  00000-0  23734-4 0  9992","BSTAR":"0.00002373400000","FILE":"3144803","COUNTRY_CODE":"US","EPOCH":"2021-10-04T19:09:16.202016","DECAY_DATE":null,"OBJECT_NAME":"STARLINK-1803","MEAN_ANOMALY":"275.2141"},{"MEAN_ANOMALY":"227.0237","DECAY_DATE":null,"OBJECT_NAME":"STARLINK-1804","EPOCH":"2021-10-04T17:04:32.048256","COUNTRY_CODE":"US","FILE":"3144803","BSTAR":"0.00008959800000","TLE_LINE1":"1 46704U 20073AL  21277.71148204  .00001052  00000-0  89598-4 0  9990","EPHEMERIS_TYPE":"0","SITE":"AFETR","INCLINATION":"53.0537","OBJECT_ID":"2020-073AL","ELEMENT_SET_NO":"999","CENTER_NAME":"EARTH","LAUNCH_DATE":"2020-10-18","ECCENTRICITY":"0.00037440","PERIAPSIS":"544.622","TIME_SYSTEM":"UTC","APOAPSIS":"549.807","SEMIMAJOR_AXIS":"6925.349","RCS_SIZE":"LARGE","OBJECT_TYPE":"PAYLOAD","MEAN_MOTION_DDOT":"0.0000000000000","CLASSIFICATION_TYPE":"U","MEAN_MOTION":"15.06399719","ARG_OF_PERICENTER":"133.1065","REF_FRAME":"TEME","RA_OF_ASC_NODE":"280.5000","MEAN_MOTION_DOT":"0.00001052","GP_ID":"186226455","TLE_LINE2":"2 46704  53.0537 280.5000 0003744 133.1065 227.0237 15.06399719 53694","PERIOD":"95.592","NORAD_CAT_ID":"46704","REV_AT_EPOCH":"5369","MEAN_ELEMENT_THEORY":"SGP4"},{"CENTER_NAME":"EARTH","ELEMENT_SET_NO":"999","OBJECT_ID":"2020-073AM","INCLINATION":"53.0546","EPHEMERIS_TYPE":"0","SITE":"AFETR","TLE_LINE1":"1 46705U 20073AM  21277.59215389 -.00001627  00000-0 -90366-4 0  9991","BSTAR":"-0.00009036600000","FILE":"3144803","COUNTRY_CODE":"US","EPOCH":"2021-10-04T14:12:42.096096","DECAY_DATE":null,"OBJECT_NAME":"STARLINK-1805","MEAN_ANOMALY":"276.9782","MEAN_ELEMENT_THEORY":"SGP4","REV_AT_EPOCH":"5318","NORAD_CAT_ID":"46705","TLE_LINE2":"2 46705  53.0546 316.0475 0001013  83.1322 276.9782 15.06390538 53185","PERIOD":"95.593","GP_ID":"186226203","MEAN_MOTION_DOT":"-0.00001627","RA_OF_ASC_NODE":"316.0475","REF_FRAME":"TEME","ARG_OF_PERICENTER":"83.1322","MEAN_MOTION":"15.06390538","CLASSIFICATION_TYPE":"U","MEAN_MOTION_DDOT":"0.0000000000000","OBJECT_TYPE":"PAYLOAD","RCS_SIZE":"LARGE","SEMIMAJOR_AXIS":"6925.378","APOAPSIS":"547.944","TIME_SYSTEM":"UTC","LAUNCH_DATE":"2020-10-18","ECCENTRICITY":"0.00010130","PERIAPSIS":"546.541"},{"DECAY_DATE":null,"OBJECT_NAME":"STARLINK-1807","MEAN_ANOMALY":"273.7450","EPOCH":"2021-10-04T18:21:30.546432","COUNTRY_CODE":"US","BSTAR":"-0.00009820400000","FILE":"3144803","TLE_LINE1":"1 46706U 20073AN  21277.76493688 -.00001743  00000-0 -98204-4 0  9999","OBJECT_ID":"2020-073AN","INCLINATION":"53.0539","SITE":"AFETR","EPHEMERIS_TYPE":"0","ELEMENT_SET_NO":"999","CENTER_NAME":"EARTH","LAUNCH_DATE":"2020-10-18","PERIAPSIS":"546.357","ECCENTRICITY":"0.00012900","APOAPSIS":"548.144","TIME_SYSTEM":"UTC","SEMIMAJOR_AXIS":"6925.385","RCS_SIZE":"LARGE","MEAN_MOTION_DDOT":"0.0000000000000","OBJECT_TYPE":"PAYLOAD","RA_OF_ASC_NODE":"300.2740","REF_FRAME":"TEME","MEAN_MOTION":"15.06388024","ARG_OF_PERICENTER":"86.3687","CLASSIFICATION_TYPE":"U","NORAD_CAT_ID":"46706","PERIOD":"95.593","TLE_LINE2":"2 46706  53.0539 300.2740 0001290  86.3687 273.7450 15.06388024 53425","GP_ID":"186224954","MEAN_MOTION_DOT":"-0.00001743","MEAN_ELEMENT_THEORY":"SGP4","REV_AT_EPOCH":"5342"},{"SEMIMAJOR_AXIS":"6925.349","RCS_SIZE":"LARGE","LAUNCH_DATE":"2020-10-18","PERIAPSIS":"544.127","ECCENTRICITY":"0.00044570","TIME_SYSTEM":"UTC","APOAPSIS":"550.300","GP_ID":"186192999","MEAN_MOTION_DOT":"0.00000153","NORAD_CAT_ID":"46707","PERIOD":"95.592","TLE_LINE2":"2 46707  53.0536 281.5154 0004457 130.7874 229.3502 15.06399920 53661","MEAN_ELEMENT_THEORY":"SGP4","REV_AT_EPOCH":"5366","OBJECT_TYPE":"PAYLOAD","MEAN_MOTION_DDOT":"0.0000000000000","ARG_OF_PERICENTER":"130.7874","MEAN_MOTION":"15.06399920","CLASSIFICATION_TYPE":"U","RA_OF_ASC_NODE":"281.5154","REF_FRAME":"TEME","COUNTRY_CODE":"US","FILE":"3144407","BSTAR":"0.00002924500000","MEAN_ANOMALY":"229.3502","OBJECT_NAME":"STARLINK-1808","DECAY_DATE":null,"EPOCH":"2021-10-04T11:46:04.334880","ELEMENT_SET_NO":"999","CENTER_NAME":"EARTH","TLE_LINE1":"1 46707U 20073AP  21277.49032795  .00000153  00000-0  29245-4 0  9999","SITE":"AFETR","EPHEMERIS_TYPE":"0","OBJECT_ID":"2020-073AP","INCLINATION":"53.0536"},{"LAUNCH_DATE":"2020-10-18","ECCENTRICITY":"0.00008960","PERIAPSIS":"473.657","APOAPSIS":"474.884","TIME_SYSTEM":"UTC","SEMIMAJOR_AXIS":"6852.405","RCS_SIZE":"LARGE","MEAN_MOTION_DDOT":"0.0000000000000","OBJECT_TYPE":"PAYLOAD","RA_OF_ASC_NODE":"280.3035","REF_FRAME":"TEME","MEAN_MOTION":"15.30517082","ARG_OF_PERICENTER":"102.4632","CLASSIFICATION_TYPE":"U","NORAD_CAT_ID":"46708","TLE_LINE2":"2 46708  53.0539 280.3035 0000896 102.4632 257.6468 15.30517082 53686","PERIOD":"94.086","GP_ID":"186225956","MEAN_MOTION_DOT":"0.00443525","REV_AT_EPOCH":"5368","MEAN_ELEMENT_THEORY":"SGP4","OBJECT_NAME":"STARLINK-1809","DECAY_DATE":null,"MEAN_ANOMALY":"257.6468","EPOCH":"2021-10-04T12:46:04.700640","COUNTRY_CODE":"US","BSTAR":"0.01397500000000","FILE":"3144803","TLE_LINE1":"1 46708U 20073AQ  21277.53199885  .00443525  00000-0  13975-1 0  9993","OBJECT_ID":"2020-073AQ","INCLINATION":"53.0539","EPHEMERIS_TYPE":"0","SITE":"AFETR","ELEMENT_SET_NO":"999","CENTER_NAME":"EARTH"},{"TLE_LINE2":"2 46709  53.0548 315.0154 0001431  82.8531 277.2621 15.06385843 53219","PERIOD":"95.593","NORAD_CAT_ID":"46709","MEAN_MOTION_DOT":"-0.00001947","GP_ID":"186226703","MEAN_ELEMENT_THEORY":"SGP4","REV_AT_EPOCH":"5321","MEAN_MOTION_DDOT":"0.0000000000000","OBJECT_TYPE":"PAYLOAD","REF_FRAME":"TEME","RA_OF_ASC_NODE":"315.0154","CLASSIFICATION_TYPE":"U","MEAN_MOTION":"15.06385843","ARG_OF_PERICENTER":"82.8531","SEMIMAJOR_AXIS":"6925.392","RCS_SIZE":"LARGE","ECCENTRICITY":"0.00014310","LAUNCH_DATE":"2020-10-18","PERIAPSIS":"546.266","APOAPSIS":"548.248","TIME_SYSTEM":"UTC","ELEMENT_SET_NO":"999","CENTER_NAME":"EARTH","TLE_LINE1":"1 46709U 20073AR  21277.81974506 -.00001947  00000-0 -11187-3 0  9991","INCLINATION":"53.0548","OBJECT_ID":"2020-073AR","EPHEMERIS_TYPE":"0","SITE":"AFETR","COUNTRY_CODE":"US","BSTAR":"-0.00011187000000","FILE":"3144803","OBJECT_NAME":"STARLINK-1810","DECAY_DATE":null,"MEAN_ANOMALY":"277.2621","EPOCH":"2021-10-04T19:40:25.973184"},{"ARG_OF_PERICENTER":"79.5947","MEAN_MOTION":"15.06387987","CLASSIFICATION_TYPE":"U","RA_OF_ASC_NODE":"316.0945","REF_FRAME":"TEME","OBJECT_TYPE":"PAYLOAD","MEAN_MOTION_DDOT":"0.0000000000000","MEAN_ELEMENT_THEORY":"SGP4","REV_AT_EPOCH":"5318","GP_ID":"186225454","MEAN_MOTION_DOT":"-0.00000830","NORAD_CAT_ID":"46710","PERIOD":"95.593","TLE_LINE2":"2 46710  53.0548 316.0945 0001274  79.5947 280.5186 15.06387987 53189","TIME_SYSTEM":"UTC","APOAPSIS":"548.133","LAUNCH_DATE":"2020-10-18","ECCENTRICITY":"0.00012740","PERIAPSIS":"546.368","RCS_SIZE":"LARGE","SEMIMAJOR_AXIS":"6925.385","EPHEMERIS_TYPE":"0","SITE":"AFETR","OBJECT_ID":"2020-073AS","INCLINATION":"53.0548","TLE_LINE1":"1 46710U 20073AS  21277.58478399 -.00000830  00000-0 -36863-4 0  9995","CENTER_NAME":"EARTH","ELEMENT_SET_NO":"999","EPOCH":"2021-10-04T14:02:05.336736","MEAN_ANOMALY":"280.5186","DECAY_DATE":null,"OBJECT_NAME":"STARLINK-1811","FILE":"3144803","BSTAR":"-0.00003686300000","COUNTRY_CODE":"US"},{"BSTAR":"-0.00000631330000","FILE":"3144803","COUNTRY_CODE":"US","EPOCH":"2021-10-04T18:10:53.248800","DECAY_DATE":null,"OBJECT_NAME":"STARLINK-1813","MEAN_ANOMALY":"275.1300","CENTER_NAME":"EARTH","ELEMENT_SET_NO":"999","OBJECT_ID":"2020-073AT","INCLINATION":"53.0544","SITE":"AFETR","EPHEMERIS_TYPE":"0","TLE_LINE1":"1 46711U 20073AT  21277.75756075 -.00000375  00000-0 -63133-5 0  9990","RCS_SIZE":"LARGE","SEMIMAJOR_AXIS":"6925.386","APOAPSIS":"548.081","TIME_SYSTEM":"UTC","LAUNCH_DATE":"2020-10-18","ECCENTRICITY":"0.00011990","PERIAPSIS":"546.421","REV_AT_EPOCH":"5342","MEAN_ELEMENT_THEORY":"SGP4","NORAD_CAT_ID":"46711","TLE_LINE2":"2 46711  53.0544 300.3175 0001199  84.9826 275.1300 15.06387755 53427","PERIOD":"95.593","GP_ID":"186225205","MEAN_MOTION_DOT":"-0.00000375","RA_OF_ASC_NODE":"300.3175","REF_FRAME":"TEME","ARG_OF_PERICENTER":"84.9826","MEAN_MOTION":"15.06387755","CLASSIFICATION_TYPE":"U","MEAN_MOTION_DDOT":"0.0000000000000","OBJECT_TYPE":"PAYLOAD"},{"ELEMENT_SET_NO":"999","CENTER_NAME":"EARTH","TLE_LINE1":"1 46712U 20073AU  21277.39169830  .00000030  00000-0  20882-4 0  9997","INCLINATION":"53.0556","OBJECT_ID":"2020-073AU","SITE":"AFETR","EPHEMERIS_TYPE":"0","COUNTRY_CODE":"US","BSTAR":"0.00002088200000","FILE":"3144407","DECAY_DATE":null,"OBJECT_NAME":"STARLINK-1814","MEAN_ANOMALY":"272.9530","EPOCH":"2021-10-04T09:24:02.733120","PERIOD":"95.592","TLE_LINE2":"2 46712  53.0556 301.9630 0001230  87.1600 272.9530 15.06402876 53360","NORAD_CAT_ID":"46712","MEAN_MOTION_DOT":"0.00000030","GP_ID":"186193250","MEAN_ELEMENT_THEORY":"SGP4","REV_AT_EPOCH":"5336","MEAN_MOTION_DDOT":"0.0000000000000","OBJECT_TYPE":"PAYLOAD","REF_FRAME":"TEME","RA_OF_ASC_NODE":"301.9630","CLASSIFICATION_TYPE":"U","MEAN_MOTION":"15.06402876","ARG_OF_PERICENTER":"87.1600","SEMIMAJOR_AXIS":"6925.340","RCS_SIZE":"LARGE","LAUNCH_DATE":"2020-10-18","PERIAPSIS":"546.353","ECCENTRICITY":"0.00012300","APOAPSIS":"548.057","TIME_SYSTEM":"UTC"}];
